[{"OBJECT_NAME":"STARLINK-32571","OBJECT_ID":"2024-216Z","EPOCH":"2026-02-04T11:39:19.802304","MEAN_MOTION":15.27580866,"ECCENTRICITY":0.000117,"INCLINATION":42.9968,"RA_OF_ASC_NODE":83.307,"ARG_OF_PERICENTER":282.9308,"MEAN_ANOMALY":77.1413,"EPHEMERIS_TYPE":0,"CLASSIFICATION_TYPE":"U","NORAD_CAT_ID":62055,"ELEMENT_SET_NO":999,"REV_AT_EPOCH":6890,"BSTAR":0.00099402,"MEAN_MOTION_DOT":0.00027193,"MEAN_MOTION_DDOT":0},{"OBJECT_NAME":"STARLINK-11465 [DTC]","OBJECT_ID":"2024-217A","EPOCH":"2026-02-04T02:50:57.655104","MEAN_MOTION":15.69767783,"ECCENTRICITY":0.00017877,"INCLINATION":53.1566,"RA_OF_ASC_NODE":236.544,"ARG_OF_PERICENTER":36.5532,"MEAN_ANOMALY":323.5608,"EPHEMERIS_TYPE":0,"CLASSIFICATION_TYPE":"U","NORAD_CAT_ID":62057,"ELEMENT_SET_NO":999,"REV_AT_EPOCH":6990,"BSTAR":0.0018267756,"MEAN_MOTION_DOT":0.0022744,"MEAN_MOTION_DDOT":0},{"OBJECT_NAME":"STARLINK-11426 [DTC]","OBJECT_ID":"2024-217B","EPOCH":"2026-02-04T02:43:52.996512","MEAN_MOTION":15.69760945,"ECCENTRICITY":0.00024169,"INCLINATION":53.1565,"RA_OF_ASC_NODE":236.5056,"ARG_OF_PERICENTER":171.9748,"MEAN_ANOMALY":188.1309,"EPHEMERIS_TYPE":0,"CLASSIFICATION_TYPE":"U","NORAD_CAT_ID":62058,"ELEMENT_SET_NO":999,"REV_AT_EPOCH":6984,"BSTAR":0.001058482,"MEAN_MOTION_DOT":0.00129954,"MEAN_MOTION_DDOT":0},{"OBJECT_NAME":"STARLINK-11454 [DTC]","OBJECT_ID":"2024-217C","EPOCH":"2026-02-04T00:29:58.342560","MEAN_MOTION":15.69941515,"ECCENTRICITY":0.00019908,"INCLINATION":53.1571,"RA_OF_ASC_NODE":237.365,"ARG_OF_PERICENTER":158.4517,"MEAN_ANOMALY":201.6586,"EPHEMERIS_TYPE":0,"CLASSIFICATION_TYPE":"U","NORAD_CAT_ID":62059,"ELEMENT_SET_NO":999,"REV_AT_EPOCH":6988,"BSTAR":0.0024375028,"MEAN_MOTION_DOT":0.00308923,"MEAN_MOTION_DDOT":0},{"OBJECT_NAME":"STARLINK-11473 [DTC]","OBJECT_ID":"2024-217D","EPOCH":"2026-02-04T03:47:28.412736","MEAN_MOTION":15.69841419,"ECCENTRICITY":6.268e-5,"INCLINATION":53.1567,"RA_OF_ASC_NODE":236.8009,"ARG_OF_PERICENTER":70.962,"MEAN_ANOMALY":289.1465,"EPHEMERIS_TYPE":0,"CLASSIFICATION_TYPE":"U","NORAD_CAT_ID":62060,"ELEMENT_SET_NO":999,"REV_AT_EPOCH":6990,"BSTAR":0.0023414438,"MEAN_MOTION_DOT":0.00295006,"MEAN_MOTION_DDOT":0},{"OBJECT_NAME":"STARLINK-11429 [DTC]","OBJECT_ID":"2024-217E","EPOCH":"2026-02-03T22:51:13.618944","MEAN_MOTION":15.69746445,"ECCENTRICITY":4.357e-5,"INCLINATION":53.1572,"RA_OF_ASC_NODE":237.6438,"ARG_OF_PERICENTER":127.2893,"MEAN_ANOMALY":232.8165,"EPHEMERIS_TYPE":0,"CLASSIFICATION_TYPE":"U","NORAD_CAT_ID":62061,"ELEMENT_SET_NO":999,"REV_AT_EPOCH":6987,"BSTAR":0.0020533661,"MEAN_MOTION_DOT":0.00256411,"MEAN_MOTION_DDOT":0},{"OBJECT_NAME":"STARLINK-11470 [DTC]","OBJECT_ID":"2024-217F","EPOCH":"2026-02-04T06:22:35.191776","MEAN_MOTION":15.6978414,"ECCENTRICITY":0.0001319,"INCLINATION":53.1561,"RA_OF_ASC_NODE":236.0415,"ARG_OF_PERICENTER":64.5755,"MEAN_ANOMALY":295.54,"EPHEMERIS_TYPE":0,"CLASSIFICATION_TYPE":"U","NORAD_CAT_ID":62062,"ELEMENT_SET_NO":999,"REV_AT_EPOCH":6986,"BSTAR":0.0017973,"MEAN_MOTION_DOT":0.00223815,"MEAN_MOTION_DDOT":0},{"OBJECT_NAME":"STARLINK-11427 [DTC]","OBJECT_ID":"2024-217G","EPOCH":"2026-02-04T12:50:30.765120","MEAN_MOTION":15.69767772,"ECCENTRICITY":8.43e-5,"INCLINATION":53.1561,"RA_OF_ASC_NODE":234.8852,"ARG_OF_PERICENTER":120.0632,"MEAN_ANOMALY":240.0469,"EPHEMERIS_TYPE":0,"CLASSIFICATION_TYPE":"U","NORAD_CAT_ID":62063,"ELEMENT_SET_NO":999,"REV_AT_EPOCH":6996,"BSTAR":0.0024493,"MEAN_MOTION_DOT":0.00308175,"MEAN_MOTION_DDOT":0},{"OBJECT_NAME":"STARLINK-11456 [DTC]","OBJECT_ID":"2024-217H","EPOCH":"2026-02-04T12:08:08.069280","MEAN_MOTION":15.69921216,"ECCENTRICITY":0.0003502,"INCLINATION":53.1558,"RA_OF_ASC_NODE":234.6913,"ARG_OF_PERICENTER":315.301,"MEAN_ANOMALY":44.7725,"EPHEMERIS_TYPE":0,"CLASSIFICATION_TYPE":"U","NORAD_CAT_ID":62064,"ELEMENT_SET_NO":999,"REV_AT_EPOCH":6996,"BSTAR":0.0018388,"MEAN_MOTION_DOT":0.00230522,"MEAN_MOTION_DDOT":0},{"OBJECT_NAME":"STARLINK-11474 [DTC]","OBJECT_ID":"2024-217J","EPOCH":"2026-02-04T02:36:49.377312","MEAN_MOTION":15.69816478,"ECCENTRICITY":0.0001778,"INCLINATION":53.1575,"RA_OF_ASC_NODE":236.4764,"ARG_OF_PERICENTER":176.638,"MEAN_ANOMALY":183.465,"EPHEMERIS_TYPE":0,"CLASSIFICATION_TYPE":"U","NORAD_CAT_ID":62065,"ELEMENT_SET_NO":999,"REV_AT_EPOCH":6990,"BSTAR":0.0020467854,"MEAN_MOTION_DOT":0.00256318,"MEAN_MOTION_DDOT":0},{"OBJECT_NAME":"STARLINK-11463 [DTC]","OBJECT_ID":"2024-217K","EPOCH":"2026-02-04T04:43:49.096992","MEAN_MOTION":15.69682924,"ECCENTRICITY":0.0002606,"INCLINATION":53.155,"RA_OF_ASC_NODE":236.323,"ARG_OF_PERICENTER":161.6321,"MEAN_ANOMALY":198.4791,"EPHEMERIS_TYPE":0,"CLASSIFICATION_TYPE":"U","NORAD_CAT_ID":62066,"ELEMENT_SET_NO":999,"REV_AT_EPOCH":6991,"BSTAR":0.0010412,"MEAN_MOTION_DOT":0.00127374,"MEAN_MOTION_DDOT":0},{"OBJECT_NAME":"STARLINK-11472 [DTC]","OBJECT_ID":"2024-217L","EPOCH":"2026-02-03T20:23:10.632768","MEAN_MOTION":15.69765788,"ECCENTRICITY":0.00015502,"INCLINATION":53.157,"RA_OF_ASC_NODE":238.4324,"ARG_OF_PERICENTER":98.9349,"MEAN_ANOMALY":261.1845,"EPHEMERIS_TYPE":0,"CLASSIFICATION_TYPE":"U","NORAD_CAT_ID":62067,"ELEMENT_SET_NO":999,"REV_AT_EPOCH":6978,"BSTAR":0.0015397589,"MEAN_MOTION_DOT":0.00190742,"MEAN_MOTION_DDOT":0},{"OBJECT_NAME":"STARLINK-11467 [DTC]","OBJECT_ID":"2024-217M","EPOCH":"2026-02-04T04:36:46.215648","MEAN_MOTION":15.69702843,"ECCENTRICITY":0.0001382,"INCLINATION":53.1553,"RA_OF_ASC_NODE":236.2908,"ARG_OF_PERICENTER":99.3115,"MEAN_ANOMALY":260.8059,"EPHEMERIS_TYPE":0,"CLASSIFICATION_TYPE":"U","NORAD_CAT_ID":62068,"ELEMENT_SET_NO":999,"REV_AT_EPOCH":6991,"BSTAR":0.0016014,"MEAN_MOTION_DOT":0.00198055,"MEAN_MOTION_DDOT":0},{"OBJECT_NAME":"STARLINK-11460 [DTC]","OBJECT_ID":"2024-217N","EPOCH":"2026-02-03T21:47:47.616864","MEAN_MOTION":15.69788863,"ECCENTRICITY":3.946e-5,"INCLINATION":53.1565,"RA_OF_ASC_NODE":238.0864,"ARG_OF_PERICENTER":99.7942,"MEAN_ANOMALY":260.3121,"EPHEMERIS_TYPE":0,"CLASSIFICATION_TYPE":"U","NORAD_CAT_ID":62069,"ELEMENT_SET_NO":999,"REV_AT_EPOCH":6980,"BSTAR":0.0012566682,"MEAN_MOTION_DOT":0.00155041,"MEAN_MOTION_DDOT":0},{"OBJECT_NAME":"STARLINK-32604","OBJECT_ID":"2024-217P","EPOCH":"2026-02-04T06:54:36.548064","MEAN_MOTION":15.30218401,"ECCENTRICITY":0.0001253,"INCLINATION":53.1602,"RA_OF_ASC_NODE":349.3104,"ARG_OF_PERICENTER":94.9827,"MEAN_ANOMALY":265.1317,"EPHEMERIS_TYPE":0,"CLASSIFICATION_TYPE":"U","NORAD_CAT_ID":62070,"ELEMENT_SET_NO":999,"REV_AT_EPOCH":6830,"BSTAR":0.0011684,"MEAN_MOTION_DOT":0.00034424,"MEAN_MOTION_DDOT":0},{"OBJECT_NAME":"STARLINK-32553","OBJECT_ID":"2024-217Q","EPOCH":"2026-02-04T06:53:05.504928","MEAN_MOTION":15.30200923,"ECCENTRICITY":0.0001202,"INCLINATION":53.1604,"RA_OF_ASC_NODE":349.3053,"ARG_OF_PERICENTER":89.9277,"MEAN_ANOMALY":270.1861,"EPHEMERIS_TYPE":0,"CLASSIFICATION_TYPE":"U","NORAD_CAT_ID":62071,"ELEMENT_SET_NO":999,"REV_AT_EPOCH":6835,"BSTAR":0.0015221,"MEAN_MOTION_DOT":0.00044995,"MEAN_MOTION_DDOT":0}]
