STARLINK-32571          
1 62055U 24216Z   26035.48564586  .00027193  00000+0  99402-3 0  9993
2 62055  42.9968  83.3070 0001170 282.9308  77.1413 15.27580866 68904
STARLINK-11465 [DTC]    
1 62057U 24217A   26035.11872286  .00227440  00000+0  18268-2 0  9992
2 62057  53.1566 236.5440 0001787  36.5532 323.5608 15.69767783 69909
STARLINK-11426 [DTC]    
1 62058U 24217B   26035.11380783  .00129954  00000+0  10585-2 0  9994
2 62058  53.1565 236.5056 0002416 171.9748 188.1309 15.69760945 69844
STARLINK-11454 [DTC]    
1 62059U 24217C   26035.02081415  .00308923  00000+0  24375-2 0  9992
2 62059  53.1571 237.3650 0001990 158.4517 201.6586 15.69941515 69887
STARLINK-11473 [DTC]    
1 62060U 24217D   26035.15796774  .00295006  00000+0  23414-2 0  9999
2 62060  53.1567 236.8009 0000626  70.9620 289.1465 15.69841419 69906
STARLINK-11429 [DTC]    
1 62061U 24217E   26034.95224096  .00256411  00000+0  20534-2 0  9997
2 62061  53.1572 237.6438 0000435 127.2893 232.8165 15.69746445 69875
STARLINK-11470 [DTC]    
1 62062U 24217F   26035.26568509  .00223815  00000+0  17973-2 0  9998
2 62062  53.1561 236.0415 0001319  64.5755 295.5400 15.69784140 69865
STARLINK-11427 [DTC]    
1 62063U 24217G   26035.53507830  .00308175  00000+0  24493-2 0  9997
2 62063  53.1561 234.8852 0000843 120.0632 240.0469 15.69767772 69963
STARLINK-11456 [DTC]    
1 62064U 24217H   26035.50564895  .00230522  00000+0  18388-2 0  9995
2 62064  53.1558 234.6913 0003502 315.3010  44.7725 15.69921216 69969
STARLINK-11474 [DTC]    
1 62065U 24217J   26035.10890483  .00256318  00000+0  20468-2 0  9990
2 62065  53.1575 236.4764 0001778 176.6380 183.4650 15.69816478 69909
STARLINK-11463 [DTC]    
1 62066U 24217K   26035.19709603  .00127374  00000+0  10412-2 0  9990
2 62066  53.1550 236.3230 0002606 161.6321 198.4791 15.69682924 69910
STARLINK-11472 [DTC]    
1 62067U 24217L   26034.84942862  .00190742  00000+0  15398-2 0  9995
2 62067  53.1570 238.4324 0001550  98.9349 261.1845 15.69765788 69782
STARLINK-11467 [DTC]    
1 62068U 24217M   26035.19220157  .00198055  00000+0  16014-2 0  9992
2 62068  53.1553 236.2908 0001382  99.3115 260.8059 15.69702843 69918
STARLINK-11460 [DTC]    
1 62069U 24217N   26034.90819001  .00155041  00000+0  12567-2 0  9990
2 62069  53.1565 238.0864 0000394  99.7942 260.3121 15.69788863 69806
STARLINK-32604          
1 62070U 24217P   26035.28792301  .00034424  00000+0  11684-2 0  9997
2 62070  53.1602 349.3104 0001253  94.9827 265.1317 15.30218401 68305
STARLINK-32553          
1 62071U 24217Q   26035.28686927  .00044995  00000+0  15221-2 0  9999
2 62071  53.1604 349.3053 0001202  89.9277 270.1861 15.30200923 68353
